NORAD_CAT_ID,OBJECT_NAME,OBJECT_TYPE,EPOCH,MEAN_MOTION,ECCENTRICITY,INCLINATION,RA_OF_ASC_NODE,ARG_OF_PERICENTER,MEAN_ANOMALY,BSTAR,MEAN_MOTION_DOT,MEAN_MOTION_DDOT,TLE_LINE0,TLE_LINE1,TLE_LINE2,SEMIMAJOR_AXIS,PERIOD,APOGEE,PERIGEE,DECAYED
51755.0,STARLINK-3460,PAYLOAD,2024-03-24 19:56:10,15.08849403,0.000115,53.2157,278.2444,84.8331,275.2792,0.00036894,5.59e-05,0.0,0 STARLINK-3460,1 51755U 22016AT  24084.83067139  .00005590  00000-0  36894-3 0  9991,2 51755  53.2157 278.2444 0001150  84.8331 275.2792 15.08849403116894,6917.852,95.437,540.512,538.921,0.0
51755.0,STARLINK-3460,PAYLOAD,2024-03-25 19:46:58,15.08824635,0.0001277,53.2149,273.7819,67.9153,292.1975,-8.3119e-05,-1.61e-05,0.0,0 STARLINK-3460,1 51755U 22016AT  24085.82428322 -.00001610  00000-0 -83119-4 0  9990,2 51755  53.2149 273.7819 0001277  67.9153 292.1975 15.08824635117055,6917.927,95.439,540.676,538.909,0.0
51755.0,STARLINK-3460,PAYLOAD,2024-03-26 11:40:50,15.08825256,0.0001223,53.2155,270.8084,80.0153,280.0977,0.00018883,2.717e-05,0.0,0 STARLINK-3460,1 51755U 22016AT  24086.48669261  .00002717  00000-0  18883-3 0  9994,2 51755  53.2155 270.8084 0001223  80.0153 280.0977 15.08825256116036,6917.925,95.438,540.637,538.944,0.0
51755.0,STARLINK-3460,PAYLOAD,2024-03-26 19:37:45,15.08838153,0.0001359,53.2157,269.3248,89.6593,270.4554,0.00050953,7.83e-05,0.0,0 STARLINK-3460,1 51755U 22016AT  24086.81789034  .00007830  00000-0  50953-3 0  9997,2 51755  53.2157 269.3248 0001359  89.6593 270.4554 15.08838153117200,6917.886,95.438,540.691,538.811,0.0
51755.0,STARLINK-3460,PAYLOAD,2024-03-27 05:10:04,15.08854847,0.0001379,53.215,267.539,79.7065,280.4082,0.0012258,0.00019282,0.0,0 STARLINK-3460,1 51755U 22016AT  24087.21532952  .00019282  00000-0  12258-2 0  9996,2 51755  53.2150 267.5390 0001379  79.7065 280.4082 15.08854847117268,6917.835,95.437,540.654,538.746,0.0
51755.0,STARLINK-3460,PAYLOAD,2024-03-27 19:28:31,15.08851816,0.0001483,53.2156,264.8642,81.0469,279.0691,-0.00062693,-0.00010255,0.0,0 STARLINK-3460,1 51755U 22016AT  24087.81147324 -.00010255  00000-0 -62693-3 0  9999,2 51755  53.2156 264.8642 0001483  81.0469 279.0691 15.08851816116233,6917.844,95.437,540.735,538.683,0.0
51755.0,STARLINK-3460,PAYLOAD,2024-03-28 11:22:22,15.08839217,0.0001527,53.2156,261.8896,83.3283,276.7883,0.001149,0.00018045,0.0,0 STARLINK-3460,1 51755U 22016AT  24088.47387662  .00018045  00000-0  11490-2 0  9994,2 51755  53.2156 261.8896 0001527  83.3283 276.7883 15.08839217116338,6917.883,95.438,540.804,538.691,0.0
51755.0,STARLINK-3460,PAYLOAD,2024-03-28 17:43:55,15.08856958,0.0001527,53.2159,260.7004,80.8157,279.3007,0.0013011,0.00020489,0.0,0 STARLINK-3460,1 51755U 22016AT  24088.73883192  .00020489  00000-0  13011-2 0  9998,2 51755  53.2159 260.7004 0001527  80.8157 279.3007 15.08856958117498,6917.829,95.436,540.75,538.637,0.0
51755.0,STARLINK-3460,PAYLOAD,2024-03-29 11:13:09,15.08816943,0.0001515,53.2187,257.4273,121.9708,238.1432,-0.00073588,-0.00011973,0.0,0 STARLINK-3460,1 51755U 22016AT  24089.46746794 -.00011973  00000-0 -73588-3 0  9991,2 51755  53.2187 257.4273 0001515 121.9708 238.1432 15.08816943117604,6917.951,95.439,540.864,538.768,0.0
51755.0,STARLINK-3460,PAYLOAD,2024-03-29 20:45:28,15.08827256,0.0001747,53.2165,255.6472,91.7511,268.3681,3.9364e-05,3.38e-06,0.0,0 STARLINK-3460,1 51755U 22016AT  24089.86491421  .00000338  00000-0  39364-4 0  9995,2 51755  53.2165 255.6472 0001747  91.7511 268.3681 15.08827256116546,6917.919,95.438,540.993,538.576,0.0
51755.0,STARLINK-3460,PAYLOAD,2024-03-30 04:42:24,15.08823208,0.0001752,53.2163,254.158,98.4477,261.6714,0.00091261,0.00014259,0.0,0 STARLINK-3460,1 51755U 22016AT  24090.19612148  .00014259  00000-0  91261-3 0  9994,2 51755  53.2163 254.1580 0001752  98.4477 261.6714 15.08823208117715,6917.932,95.439,541.009,538.585,0.0
51755.0,STARLINK-3460,PAYLOAD,2024-03-30 14:14:44,15.08832376,0.0001716,53.2159,252.3738,96.4184,263.7004,0.00091707,0.00014334,0.0,0 STARLINK-3460,1 51755U 22016AT  24090.59356523  .00014334  00000-0  91707-3 0  9999,2 51755  53.2159 252.3738 0001716  96.4184 263.7004 15.08832376116651,6917.904,95.438,540.956,538.582,0.0
51755.0,STARLINK-3460,PAYLOAD,2024-03-30 17:25:30,15.0883549,0.0001681,53.216,251.7805,89.3025,270.8159,0.00090905,0.00014207,0.0,0 STARLINK-3460,1 51755U 22016AT  24090.72604610  .00014207  00000-0  90905-3 0  9995,2 51755  53.2160 251.7805 0001681  89.3025 270.8159 15.08835490116679,6917.894,95.438,540.922,538.596,0.0
51755.0,STARLINK-3460,PAYLOAD,2024-03-31 10:54:44,15.08853955,0.0001656,53.2159,248.5094,89.2036,270.9146,0.0010897,0.00017104,0.0,0 STARLINK-3460,1 51755U 22016AT  24091.45468633  .00017104  00000-0  10897-2 0  9999,2 51755  53.2159 248.5094 0001656  89.2036 270.9146 15.08853955117904,6917.838,95.437,540.848,538.557,0.0
51755.0,STARLINK-3460,PAYLOAD,2024-03-31 14:05:31,15.08845256,0.0001624,53.2165,247.9149,89.2391,270.8787,0.00052186,8.028e-05,0.0,0 STARLINK-3460,1 51755U 22016AT  24091.58716631  .00008028  00000-0  52186-3 0  9990,2 51755  53.2165 247.9149 0001624  89.2391 270.8787 15.08845256116807,6917.864,95.437,540.853,538.606,0.0
51755.0,STARLINK-3460,PAYLOAD,2024-03-31 17:16:17,15.08843351,0.0001489,53.2178,247.3203,89.7996,270.3167,0.00041578,6.336e-05,0.0,0 STARLINK-3460,1 51755U 22016AT  24091.71964651  .00006336  00000-0  41578-3 0  9995,2 51755  53.2178 247.3203 0001489  89.7996 270.3167 15.08843351117948,6917.87,95.437,540.765,538.705,0.0
51755.0,STARLINK-3460,PAYLOAD,2024-04-01 10:45:32,15.08842349,0.0002372,53.2191,244.0492,99.4271,260.6989,0.00016349,2.315e-05,0.0,0 STARLINK-3460,1 51755U 22016AT  24092.44828727  .00002315  00000-0  16349-3 0  9990,2 51755  53.2191 244.0492 0002372  99.4271 260.6989 15.08842349118056,6917.873,95.437,541.379,538.097,0.0
51755.0,STARLINK-3460,PAYLOAD,2024-04-01 13:56:18,15.08835811,0.0001781,53.2193,243.4555,96.8483,263.2712,2.6263e-06,-2.46e-06,0.0,0 STARLINK-3460,1 51755U 22016AT  24092.58076815 -.00000246  00000-0  26263-5 0  9998,2 51755  53.2193 243.4555 0001781  96.8483 263.2712 15.08835811116956,6917.893,95.438,540.99,538.526,0.0
51755.0,STARLINK-3460,PAYLOAD,2024-04-02 13:47:05,15.08834068,0.0001538,53.2178,238.9956,93.2242,266.8926,7.7658e-05,9.48e-06,0.0,0 STARLINK-3460,1 51755U 22016AT  24093.57437088  .00000948  00000-0  77658-4 0  9992,2 51755  53.2178 238.9956 0001538  93.2242 266.8926 15.08834068117104,6917.899,95.438,540.827,538.7,0.0
51755.0,STARLINK-3460,PAYLOAD,2024-04-02 18:33:15,15.08839452,0.0001372,53.2169,238.1037,90.3967,269.7182,0.00032718,4.923e-05,0.0,0 STARLINK-3460,1 51755U 22016AT  24093.77309106  .00004923  00000-0  32718-3 0  9997,2 51755  53.2169 238.1037 0001372  90.3967 269.7182 15.08839452118259,6917.882,95.438,540.696,538.798,0.0
51755.0,STARLINK-3460,PAYLOAD,2024-04-03 02:30:10,15.08845402,0.0001334,53.2163,236.6165,87.2741,272.8404,0.00064791,0.0001004,0.0,0 STARLINK-3460,1 51755U 22016AT  24094.10429066  .00010040  00000-0  64791-3 0  9996,2 51755  53.2163 236.6165 0001334  87.2741 272.8404 15.08845402117186,6917.864,95.437,540.652,538.806,0.0
51755.0,STARLINK-3460,PAYLOAD,2024-04-03 16:48:39,15.08843731,0.0001414,53.2164,233.9405,84.7104,275.4049,0.00039338,5.979e-05,0.0,0 STARLINK-3460,1 51755U 22016AT  24094.70045243  .00005979  00000-0  39338-3 0  9997,2 51755  53.2164 233.9405 0001414  84.7104 275.4049 15.08843731117275,6917.869,95.437,540.712,538.756,0.0
51755.0,STARLINK-3460,PAYLOAD,2024-04-04 02:20:57,15.08851971,0.0001411,53.2162,232.1561,83.3047,276.8106,0.00049513,7.603e-05,0.0,0 STARLINK-3460,1 51755U 22016AT  24095.09788950  .00007603  00000-0  49513-3 0  9991,2 51755  53.2162 232.1561 0001411  83.3047 276.8106 15.08851971118450,6917.844,95.437,540.685,538.733,0.0
51755.0,STARLINK-3460,PAYLOAD,2024-04-04 13:28:39,15.08844738,0.0002,53.2156,230.0716,89.7583,270.3639,0.00024668,3.64e-05,0.0,0 STARLINK-3460,1 51755U 22016AT  24095.56157227  .00003640  00000-0  24668-3 0  9991,2 51755  53.2156 230.0716 0002000  89.7583 270.3639 15.08844738118523,6917.866,95.437,541.114,538.347,0.0
51755.0,STARLINK-3460,PAYLOAD,2024-04-04 15:04:02,15.08839064,0.0001189,53.2159,229.7772,88.1401,271.9727,8.4629e-05,1.059e-05,0.0,0 STARLINK-3460,1 51755U 22016AT  24095.62781168  .00001059  00000-0  84629-4 0  9991,2 51755  53.2159 229.7772 0001189  88.1401 271.9727 15.08839064117410,6917.883,95.438,540.571,538.926,0.0
51755.0,STARLINK-3460,PAYLOAD,2024-04-04 16:39:26,15.08841422,0.0001307,53.2157,229.4793,86.7479,273.3663,0.00015388,2.162e-05,0.0,0 STARLINK-3460,1 51755U 22016AT  24095.69405132  .00002162  00000-0  15388-3 0  9993,2 51755  53.2157 229.4793 0001307  86.7479 273.3663 15.08841422117426,6917.876,95.437,540.645,538.837,0.0
51755.0,STARLINK-3460,PAYLOAD,2024-04-05 14:54:49,15.0885032,0.0001397,53.2159,225.3144,93.7385,266.3767,0.00024884,3.676e-05,0.0,0 STARLINK-3460,1 51755U 22016AT  24096.62140742  .00003676  00000-0  24884-3 0  9992,2 51755  53.2159 225.3144 0001397  93.7385 266.3767 15.08850320117565,6917.849,95.437,540.68,538.747,0.0
51755.0,STARLINK-3460,PAYLOAD,2024-04-05 18:05:35,15.08855032,0.0001412,53.2168,224.7182,99.9115,260.2037,0.00030094,4.507e-05,0.0,0 STARLINK-3460,1 51755U 22016AT  24096.75388410  .00004507  00000-0  30094-3 0  9996,2 51755  53.2168 224.7182 0001412  99.9115 260.2037 15.08855032118702,6917.834,95.437,540.676,538.723,0.0
51755.0,STARLINK-3460,PAYLOAD,2024-04-06 14:45:36,15.08855741,0.000239,53.2168,220.855,90.1261,270.0005,0.00033814,5.1e-05,0.0,0 STARLINK-3460,1 51755U 22016AT  24097.61500398  .00005100  00000-0  33814-3 0  9996,2 51755  53.2168 220.8550 0002390  90.1261 270.0005 15.08855741117710,6917.832,95.437,541.351,538.044,0.0
51755.0,STARLINK-3460,PAYLOAD,2024-04-06 17:56:22,15.08843256,0.0001929,53.2181,220.2607,88.5143,271.607,3.2267e-05,2.25e-06,0.0,0 STARLINK-3460,1 51755U 22016AT  24097.74748592  .00000225  00000-0  32267-4 0  9995,2 51755  53.2181 220.2607 0001929  88.5143 271.6070 15.08843256118852,6917.87,95.437,541.07,538.401,0.0
